{
  "type": "FeatureCollection",
  "features": [
    {
      "type": "Feature",
      "properties": {
        "norad_id": 37292,
        "name": "COSMOS 2251 DEB",
        "group": "cosmos-2251-debris",
        "lat": -41.86700063000926,
        "lon": -133.12361012554592,
        "alt_km": 1037.731469678447,
        "timestamp": "2025-12-22T22:44:21.376781+00:00",
        "meta_object_name": "COSMOS 2251 DEB",
        "meta_object_id": "1993-036BJG",
        "meta_epoch": "2025-12-02T14:04:30.366912",
        "meta_mean_motion": 14.03226454,
        "meta_eccentricity": 0.02102512,
        "meta_inclination": 74.129,
        "meta_ra_of_asc_node": 67.3453,
        "meta_arg_of_pericenter": 73.1105,
        "meta_mean_anomaly": 289.2966,
        "meta_ephemeris_type": 0,
        "meta_classification_type": "U",
        "meta_norad_cat_id": 37292,
        "meta_element_set_no": 999,
        "meta_rev_at_epoch": 59706,
        "meta_bstar": 0.0022453288,
        "meta_mean_motion_dot": 4.236e-05,
        "meta_mean_motion_ddot": 0,
        "tle_line1": "1 37292U 93036BJG 25336.58646258  .00004236  00000+0  22453-2 0  9999",
        "tle_line2": "2 37292  74.1290  67.3453 0210251  73.1105 289.2966 14.03226454597064"
      },
      "geometry": {
        "type": "Point",
        "coordinates": [
          -133.12361012554592,
          -41.86700063000926
        ]
      }
    },
    {
      "type": "Feature",
      "properties": {
        "norad_id": 37295,
        "name": "COSMOS 2251 DEB",
        "group": "cosmos-2251-debris",
        "lat": -66.26952774033386,
        "lon": 122.67158073256654,
        "alt_km": 713.8443693939835,
        "timestamp": "2025-12-22T22:44:21.376791+00:00",
        "meta_object_name": "COSMOS 2251 DEB",
        "meta_object_id": "1993-036BJK",
        "meta_epoch": "2025-12-22T00:17:34.421280",
        "meta_mean_motion": 14.65289136,
        "meta_eccentricity": 0.00439318,
        "meta_inclination": 74.0064,
        "meta_ra_of_asc_node": 263.7481,
        "meta_arg_of_pericenter": 80.1076,
        "meta_mean_anomaly": 280.5048,
        "meta_ephemeris_type": 0,
        "meta_classification_type": "U",
        "meta_norad_cat_id": 37295,
        "meta_element_set_no": 999,
        "meta_rev_at_epoch": 82440,
        "meta_bstar": 0.0005221723,
        "meta_mean_motion_dot": 2.826e-05,
        "meta_mean_motion_ddot": 0,
        "tle_line1": "1 37295U 93036BJK 25356.01220395  .00002826  00000+0  52217-3 0  9997",
        "tle_line2": "2 37295  74.0064 263.7481 0043931  80.1076 280.5048 14.65289136824402"
      },
      "geometry": {
        "type": "Point",
        "coordinates": [
          122.67158073256654,
          -66.26952774033386
        ]
      }
    },
    {
      "type": "Feature",
      "properties": {
        "norad_id": 37305,
        "name": "COSMOS 2251 DEB",
        "group": "cosmos-2251-debris",
        "lat": 43.09314433302072,
        "lon": -72.71062481400912,
        "alt_km": 802.6184240570874,
        "timestamp": "2025-12-22T22:44:21.376801+00:00",
        "meta_object_name": "COSMOS 2251 DEB",
        "meta_object_id": "1993-036BJV",
        "meta_epoch": "2025-12-21T01:23:20.082048",
        "meta_mean_motion": 14.36162637,
        "meta_eccentricity": 0.00496491,
        "meta_inclination": 73.8709,
        "meta_ra_of_asc_node": 275.0855,
        "meta_arg_of_pericenter": 234.1491,
        "meta_mean_anomaly": 125.5045,
        "meta_ephemeris_type": 0,
        "meta_classification_type": "U",
        "meta_norad_cat_id": 37305,
        "meta_element_set_no": 999,
        "meta_rev_at_epoch": 66986,
        "meta_bstar": 0.00038407162,
        "meta_mean_motion_dot": 1.108e-05,
        "meta_mean_motion_ddot": 0,
        "tle_line1": "1 37305U 93036BJV 25355.05787132  .00001108  00000+0  38407-3 0  9996",
        "tle_line2": "2 37305  73.8709 275.0855 0049649 234.1491 125.5045 14.36162637669868"
      },
      "geometry": {
        "type": "Point",
        "coordinates": [
          -72.71062481400912,
          43.09314433302072
        ]
      }
    },
    {
      "type": "Feature",
      "properties": {
        "norad_id": 37312,
        "name": "COSMOS 2251 DEB",
        "group": "cosmos-2251-debris",
        "lat": 73.45266004421875,
        "lon": -69.41208270875711,
        "alt_km": 743.6921186642585,
        "timestamp": "2025-12-22T22:44:21.376811+00:00",
        "meta_object_name": "COSMOS 2251 DEB",
        "meta_object_id": "1993-036BKC",
        "meta_epoch": "2025-12-20T18:50:10.277088",
        "meta_mean_motion": 14.46148275,
        "meta_eccentricity": 0.00184835,
        "meta_inclination": 74.0302,
        "meta_ra_of_asc_node": 189.1635,
        "meta_arg_of_pericenter": 291.522,
        "meta_mean_anomaly": 68.3967,
        "meta_ephemeris_type": 0,
        "meta_classification_type": "U",
        "meta_norad_cat_id": 37312,
        "meta_element_set_no": 999,
        "meta_rev_at_epoch": 86280,
        "meta_bstar": 0.00027670077,
        "meta_mean_motion_dot": 9.64e-06,
        "meta_mean_motion_ddot": 0,
        "tle_line1": "1 37312U 93036BKC 25354.78484117  .00000964  00000+0  27670-3 0  9999",
        "tle_line2": "2 37312  74.0302 189.1635 0018483 291.5220  68.3967 14.46148275862807"
      },
      "geometry": {
        "type": "Point",
        "coordinates": [
          -69.41208270875711,
          73.45266004421875
        ]
      }
    },
    {
      "type": "Feature",
      "properties": {
        "norad_id": 37316,
        "name": "COSMOS 2251 DEB",
        "group": "cosmos-2251-debris",
        "lat": -73.16307019854702,
        "lon": -70.78848529074683,
        "alt_km": 607.2844770860129,
        "timestamp": "2025-12-22T22:44:21.376821+00:00",
        "meta_object_name": "COSMOS 2251 DEB",
        "meta_object_id": "1993-036BKG",
        "meta_epoch": "2025-12-22T07:03:23.226048",
        "meta_mean_motion": 14.94861341,
        "meta_eccentricity": 0.00294854,
        "meta_inclination": 74.0191,
        "meta_ra_of_asc_node": 1.7909,
        "meta_arg_of_pericenter": 66.1966,
        "meta_mean_anomaly": 294.2305,
        "meta_ephemeris_type": 0,
        "meta_classification_type": "U",
        "meta_norad_cat_id": 37316,
        "meta_element_set_no": 999,
        "meta_rev_at_epoch": 86286,
        "meta_bstar": 0.0024135691,
        "meta_mean_motion_dot": 0.00026594,
        "meta_mean_motion_ddot": 0,
        "tle_line1": "1 37316U 93036BKG 25356.29401882  .00026594  00000+0  24136-2 0  9999",
        "tle_line2": "2 37316  74.0191   1.7909 0029485  66.1966 294.2305 14.94861341862868"
      },
      "geometry": {
        "type": "Point",
        "coordinates": [
          -70.78848529074683,
          -73.16307019854702
        ]
      }
    },
    {
      "type": "Feature",
      "properties": {
        "norad_id": 37320,
        "name": "COSMOS 2251 DEB",
        "group": "cosmos-2251-debris",
        "lat": -7.115518596726434,
        "lon": 20.15359632352744,
        "alt_km": 639.4726481419493,
        "timestamp": "2025-12-22T22:44:21.376831+00:00",
        "meta_object_name": "COSMOS 2251 DEB",
        "meta_object_id": "1993-036BKL",
        "meta_epoch": "2025-12-19T20:49:51.953088",
        "meta_mean_motion": 14.78856543,
        "meta_eccentricity": 0.00469093,
        "meta_inclination": 74.0446,
        "meta_ra_of_asc_node": 204.1562,
        "meta_arg_of_pericenter": 289.7671,
        "meta_mean_anomaly": 69.8449,
        "meta_ephemeris_type": 0,
        "meta_classification_type": "U",
        "meta_norad_cat_id": 37320,
        "meta_element_set_no": 999,
        "meta_rev_at_epoch": 66252,
        "meta_bstar": 0.00051289365,
        "meta_mean_motion_dot": 3.813e-05,
        "meta_mean_motion_ddot": 0,
        "tle_line1": "1 37320U 93036BKL 25353.86796242  .00003813  00000+0  51289-3 0  9990",
        "tle_line2": "2 37320  74.0446 204.1562 0046909 289.7671  69.8449 14.78856543662522"
      },
      "geometry": {
        "type": "Point",
        "coordinates": [
          20.15359632352744,
          -7.115518596726434
        ]
      }
    },
    {
      "type": "Feature",
      "properties": {
        "norad_id": 37326,
        "name": "COSMOS 2251 DEB",
        "group": "cosmos-2251-debris",
        "lat": 54.97765103830879,
        "lon": 111.02727956124981,
        "alt_km": 652.7609049633475,
        "timestamp": "2025-12-22T22:44:21.376841+00:00",
        "meta_object_name": "COSMOS 2251 DEB",
        "meta_object_id": "1993-036BKS",
        "meta_epoch": "2025-12-18T14:41:59.918784",
        "meta_mean_motion": 14.6160351,
        "meta_eccentricity": 0.00547059,
        "meta_inclination": 74.0257,
        "meta_ra_of_asc_node": 323.4491,
        "meta_arg_of_pericenter": 90.7075,
        "meta_mean_anomaly": 270.0361,
        "meta_ephemeris_type": 0,
        "meta_classification_type": "U",
        "meta_norad_cat_id": 37326,
        "meta_element_set_no": 999,
        "meta_rev_at_epoch": 85569,
        "meta_bstar": 0.00040097011,
        "meta_mean_motion_dot": 2.005e-05,
        "meta_mean_motion_ddot": 0,
        "tle_line1": "1 37326U 93036BKS 25352.61249906  .00002005  00000+0  40097-3 0  9995",
        "tle_line2": "2 37326  74.0257 323.4491 0054705  90.7075 270.0361 14.61603510855692"
      },
      "geometry": {
        "type": "Point",
        "coordinates": [
          111.02727956124981,
          54.97765103830879
        ]
      }
    }
  ]
}